{
  "type": "FeatureCollection",
  "features": [
    {
      "type": "Feature",
      "properties": {
        "norad_id": 37781,
        "name": "HAIYANG-2A",
        "group": "resource",
        "lat": 26.737572083720185,
        "lon": -4.606657327197424,
        "alt_km": 965.9791479758551,
        "timestamp": "2025-12-25T09:48:51.943109+00:00",
        "meta_object_name": "HAIYANG-2A",
        "meta_object_id": "2011-043A",
        "meta_epoch": "2025-12-25T04:27:31.478400",
        "meta_mean_motion": 13.78837016,
        "meta_eccentricity": 0.0001598,
        "meta_inclination": 99.3378,
        "meta_ra_of_asc_node": 359.9282,
        "meta_arg_of_pericenter": 67.6887,
        "meta_mean_anomaly": 292.4434,
        "meta_ephemeris_type": 0,
        "meta_classification_type": "U",
        "meta_norad_cat_id": 37781,
        "meta_element_set_no": 999,
        "meta_rev_at_epoch": 72270,
        "meta_bstar": 0.00023287,
        "meta_mean_motion_dot": 1.93e-06,
        "meta_mean_motion_ddot": 0,
        "tle_line1": "1 37781U 11043A   25359.18578100  .00000193  00000+0  23287-3 0  9996",
        "tle_line2": "2 37781  99.3378 359.9282 0001598  67.6887 292.4434 13.78837016722700"
      },
      "geometry": {
        "type": "Point",
        "coordinates": [
          -4.606657327197424,
          26.737572083720185
        ]
      }
    },
    {
      "type": "Feature",
      "properties": {
        "norad_id": 37791,
        "name": "RASAT",
        "group": "resource",
        "lat": -59.11309666349478,
        "lon": -105.23231709221166,
        "alt_km": 687.3405633894681,
        "timestamp": "2025-12-25T09:48:51.943119+00:00",
        "meta_object_name": "RASAT",
        "meta_object_id": "2011-044D",
        "meta_epoch": "2025-12-25T05:43:33.598848",
        "meta_mean_motion": 14.67926365,
        "meta_eccentricity": 0.0021277,
        "meta_inclination": 98.0643,
        "meta_ra_of_asc_node": 88.3106,
        "meta_arg_of_pericenter": 27.2424,
        "meta_mean_anomaly": 33.224,
        "meta_ephemeris_type": 0,
        "meta_classification_type": "U",
        "meta_norad_cat_id": 37791,
        "meta_element_set_no": 999,
        "meta_rev_at_epoch": 76766,
        "meta_bstar": 0.00013547,
        "meta_mean_motion_dot": 7.28e-06,
        "meta_mean_motion_ddot": 0,
        "tle_line1": "1 37791U 11044D   25359.23858332  .00000728  00000+0  13547-3 0  9994",
        "tle_line2": "2 37791  98.0643  88.3106 0021277  27.2424  33.2240 14.67926365767660"
      },
      "geometry": {
        "type": "Point",
        "coordinates": [
          -105.23231709221166,
          -59.11309666349478
        ]
      }
    },
    {
      "type": "Feature",
      "properties": {
        "norad_id": 37841,
        "name": "SRMSAT",
        "group": "resource",
        "lat": 9.283931162930921,
        "lon": -175.46916850317902,
        "alt_km": 846.2009608731969,
        "timestamp": "2025-12-25T09:48:51.943130+00:00",
        "meta_object_name": "SRMSAT",
        "meta_object_id": "2011-058D",
        "meta_epoch": "2025-12-24T18:34:49.624608",
        "meta_mean_motion": 14.11515378,
        "meta_eccentricity": 0.00119944,
        "meta_inclination": 19.973,
        "meta_ra_of_asc_node": 35.1176,
        "meta_arg_of_pericenter": 85.055,
        "meta_mean_anomaly": 74.1634,
        "meta_ephemeris_type": 0,
        "meta_classification_type": "U",
        "meta_norad_cat_id": 37841,
        "meta_element_set_no": 999,
        "meta_rev_at_epoch": 73314,
        "meta_bstar": 8.7140631e-05,
        "meta_mean_motion_dot": 4.25e-06,
        "meta_mean_motion_ddot": 0,
        "tle_line1": "1 37841U 11058D   25358.77418547  .00000425  00000+0  87141-4 0  9999",
        "tle_line2": "2 37841  19.9730  35.1176 0011994  85.0550  74.1634 14.11515378733143"
      },
      "geometry": {
        "type": "Point",
        "coordinates": [
          -175.46916850317902,
          9.283931162930921
        ]
      }
    },
    {
      "type": "Feature",
      "properties": {
        "norad_id": 38012,
        "name": "PLEIADES 1A",
        "group": "resource",
        "lat": -30.263939385069282,
        "lon": 76.79634885908476,
        "alt_km": 703.9694391133589,
        "timestamp": "2025-12-25T09:48:51.943139+00:00",
        "meta_object_name": "PLEIADES 1A",
        "meta_object_id": "2011-076F",
        "meta_epoch": "2025-12-25T05:18:30.807360",
        "meta_mean_motion": 14.58572348,
        "meta_eccentricity": 0.000106,
        "meta_inclination": 98.1807,
        "meta_ra_of_asc_node": 71.7965,
        "meta_arg_of_pericenter": 76.8514,
        "meta_mean_anomaly": 347.4237,
        "meta_ephemeris_type": 0,
        "meta_classification_type": "U",
        "meta_norad_cat_id": 38012,
        "meta_element_set_no": 999,
        "meta_rev_at_epoch": 74663,
        "meta_bstar": 8.4296e-05,
        "meta_mean_motion_dot": 3.46e-06,
        "meta_mean_motion_ddot": 0,
        "tle_line1": "1 38012U 11076F   25359.22118990  .00000346  00000+0  84296-4 0  9990",
        "tle_line2": "2 38012  98.1807  71.7965 0001060  76.8514 347.4237 14.58572348746635"
      },
      "geometry": {
        "type": "Point",
        "coordinates": [
          76.79634885908476,
          -30.263939385069282
        ]
      }
    },
    {
      "type": "Feature",
      "properties": {
        "norad_id": 38038,
        "name": "ZIYUAN 1-02C (ZY 1-02C)",
        "group": "resource",
        "lat": 21.236287293543654,
        "lon": 61.88391964819863,
        "alt_km": 764.2861121182968,
        "timestamp": "2025-12-25T09:48:51.943149+00:00",
        "meta_object_name": "ZIYUAN 1-02C (ZY 1-02C)",
        "meta_object_id": "2011-079A",
        "meta_epoch": "2025-12-25T05:08:15.313632",
        "meta_mean_motion": 14.38025418,
        "meta_eccentricity": 0.0007555,
        "meta_inclination": 98.4314,
        "meta_ra_of_asc_node": 64.997,
        "meta_arg_of_pericenter": 106.0683,
        "meta_mean_anomaly": 347.3743,
        "meta_ephemeris_type": 0,
        "meta_classification_type": "U",
        "meta_norad_cat_id": 38038,
        "meta_element_set_no": 999,
        "meta_rev_at_epoch": 73420,
        "meta_bstar": 0.00014674,
        "meta_mean_motion_dot": 4.01e-06,
        "meta_mean_motion_ddot": 0,
        "tle_line1": "1 38038U 11079A   25359.21406613  .00000401  00000+0  14674-3 0  9996",
        "tle_line2": "2 38038  98.4314  64.9970 0007555 106.0683 347.3743 14.38025418734207"
      },
      "geometry": {
        "type": "Point",
        "coordinates": [
          61.88391964819863,
          21.236287293543654
        ]
      }
    },
    {
      "type": "Feature",
      "properties": {
        "norad_id": 38338,
        "name": "ARIRANG-3 (KOMPSAT-3)",
        "group": "resource",
        "lat": 10.552164767877228,
        "lon": -47.46976017544613,
        "alt_km": 688.3908501776832,
        "timestamp": "2025-12-25T09:48:51.943160+00:00",
        "meta_object_name": "ARIRANG-3 (KOMPSAT-3)",
        "meta_object_id": "2012-025B",
        "meta_epoch": "2025-12-25T04:50:13.903584",
        "meta_mean_motion": 14.61728443,
        "meta_eccentricity": 0.0004692,
        "meta_inclination": 98.334,
        "meta_ra_of_asc_node": 313.886,
        "meta_arg_of_pericenter": 293.8663,
        "meta_mean_anomaly": 66.2046,
        "meta_ephemeris_type": 0,
        "meta_classification_type": "U",
        "meta_norad_cat_id": 38338,
        "meta_element_set_no": 999,
        "meta_rev_at_epoch": 72592,
        "meta_bstar": 0.00012952,
        "meta_mean_motion_dot": 5.97e-06,
        "meta_mean_motion_ddot": 0,
        "tle_line1": "1 38338U 12025B   25359.20154981  .00000597  00000+0  12952-3 0  9991",
        "tle_line2": "2 38338  98.3340 313.8860 0004692 293.8663  66.2046 14.61728443725920"
      },
      "geometry": {
        "type": "Point",
        "coordinates": [
          -47.46976017544613,
          10.552164767877228
        ]
      }
    },
    {
      "type": "Feature",
      "properties": {
        "norad_id": 38709,
        "name": "EXACTVIEW-1 (ADS-1B)",
        "group": "resource",
        "lat": 46.57499613924055,
        "lon": -62.33566406739469,
        "alt_km": 811.9273804173108,
        "timestamp": "2025-12-25T09:48:51.943170+00:00",
        "meta_object_name": "EXACTVIEW-1 (ADS-1B)",
        "meta_object_id": "2012-039C",
        "meta_epoch": "2025-12-24T19:42:42.645024",
        "meta_mean_motion": 14.2491263,
        "meta_eccentricity": 0.00101426,
        "meta_inclination": 98.9638,
        "meta_ra_of_asc_node": 107.4649,
        "meta_arg_of_pericenter": 317.9424,
        "meta_mean_anomaly": 42.0975,
        "meta_ephemeris_type": 0,
        "meta_classification_type": "U",
        "meta_norad_cat_id": 38709,
        "meta_element_set_no": 999,
        "meta_rev_at_epoch": 69787,
        "meta_bstar": 8.4450506e-05,
        "meta_mean_motion_dot": 1.51e-06,
        "meta_mean_motion_ddot": 0,
        "tle_line1": "1 38709U 12039C   25358.82132691  .00000151  00000+0  84451-4 0  9999",
        "tle_line2": "2 38709  98.9638 107.4649 0010142 317.9424  42.0975 14.24912630697877"
      },
      "geometry": {
        "type": "Point",
        "coordinates": [
          -62.33566406739469,
          46.57499613924055
        ]
      }
    }
  ]
}